ONEWEB-0415             
1 51624U 22012C   23362.68602021 -.00000062  00000+0 -21259-3 0  9997
2 51624  87.8903 215.3350 0001771  84.8025 275.3304 13.10367103 92502
ONEWEB-0416             
1 51625U 22012D   23362.62100733 -.00000522  00000+0 -15330-2 0  9998
2 51625  87.8905 215.3341 0001333  84.8997 275.2283 13.10372249 91250
ONEWEB-0422             
1 51626U 22012E   23362.56122016  .00000033  00000+0  52976-4 0  9994
2 51626  87.9201 185.1131 0001548 121.7704 238.3579 13.17651188 95078
ONEWEB-0423             
1 51627U 22012F   23362.93457540  .00000106  00000+0  24061-3 0  9993
2 51627  87.9203 185.0364 0001449  95.1223 265.0074 13.17651536 95016
ONEWEB-0425             
1 51628U 22012G   23362.63077487 -.00000586  00000+0 -17144-2 0  9996
2 51628  87.8905 215.3211 0000979  74.5999 285.5236 13.10373221 91255
